IRIDIUM 150             
1 43257U 18030J   23310.55202442  .00000711  00000+0  24676-3 0  9992
2 43257  86.3956 329.0359 0002207 101.6573 258.4870 14.34221964293470
IRIDIUM 143             
1 43258U 18030K   23310.60278545  .00000711  00000+0  24674-3 0  9994
2 43258  86.3959 329.0692 0002435  95.1074 265.0400 14.34219582293410
IRIDIUM 161             
1 43478U 18047C   23310.59256263  .00000391  00000+0  11029-3 0  9991
2 43478  86.4460 127.0468 0002001  90.2029 269.9402 14.43278421287598
IRIDIUM 152             
1 43479U 18047D   23310.78481044  .00000216  00000+0  69935-4 0  9996
2 43479  86.3932 126.8260 0002323  89.2934 270.8528 14.34219150285849
IRIDIUM 147             
1 43480U 18047E   23310.58183056  .00000291  00000+0  96820-4 0  9994
2 43480  86.3935 126.8995 0001851  86.4926 273.6481 14.34218270285801
IRIDIUM 110             
1 43481U 18047F   23310.58816989  .00000308  00000+0  10292-3 0  9990
2 43481  86.3937 126.9636 0001737  88.7819 271.3575 14.34217810285792
IRIDIUM 162             
1 43482U 18047G   23310.58629817  .00000389  00000+0  10972-3 0  9997
2 43482  86.4458 126.9525 0002021  90.1995 269.9438 14.43283922287585
IRIDIUM 160             
1 43569U 18061A   23310.46423756  .00000845  00000+0  29451-3 0  9999
2 43569  86.3935  95.3716 0002245  85.1620 274.9832 14.34219675276674
