<?xml version="1.0" encoding="UTF-8"?>
<ndm xmlns:xsi="http://www.w3.org/2001/XMLSchema-instance" xsi:noNamespaceSchemaLocation="https://sanaregistry.org/r/ndmxml_unqualified/ndmxml-2.0.0-master-2.0.xsd">
<omm id="CCSDS_OMM_VERS" version="2.0">
<header><CREATION_DATE/><ORIGINATOR/></header><body><segment><metadata><OBJECT_NAME>IRIDIUM 150</OBJECT_NAME><OBJECT_ID>2018-030J</OBJECT_ID><CENTER_NAME>EARTH</CENTER_NAME><REF_FRAME>TEME</REF_FRAME><TIME_SYSTEM>UTC</TIME_SYSTEM><MEAN_ELEMENT_THEORY>SGP4</MEAN_ELEMENT_THEORY></metadata><data><meanElements><EPOCH>2023-11-06T13:14:54.909888</EPOCH><MEAN_MOTION>14.34221964</MEAN_MOTION><ECCENTRICITY>.0002207</ECCENTRICITY><INCLINATION>86.3956</INCLINATION><RA_OF_ASC_NODE>329.0359</RA_OF_ASC_NODE><ARG_OF_PERICENTER>101.6573</ARG_OF_PERICENTER><MEAN_ANOMALY>258.4870</MEAN_ANOMALY></meanElements><tleParameters><EPHEMERIS_TYPE>0</EPHEMERIS_TYPE><CLASSIFICATION_TYPE>U</CLASSIFICATION_TYPE><NORAD_CAT_ID>43257</NORAD_CAT_ID><ELEMENT_SET_NO>999</ELEMENT_SET_NO><REV_AT_EPOCH>29347</REV_AT_EPOCH><BSTAR>.24676E-3</BSTAR><MEAN_MOTION_DOT>.711E-5</MEAN_MOTION_DOT><MEAN_MOTION_DDOT>0</MEAN_MOTION_DDOT></tleParameters></data></segment></body></omm>
<omm id="CCSDS_OMM_VERS" version="2.0">
<header><CREATION_DATE/><ORIGINATOR/></header><body><segment><metadata><OBJECT_NAME>IRIDIUM 143</OBJECT_NAME><OBJECT_ID>2018-030K</OBJECT_ID><CENTER_NAME>EARTH</CENTER_NAME><REF_FRAME>TEME</REF_FRAME><TIME_SYSTEM>UTC</TIME_SYSTEM><MEAN_ELEMENT_THEORY>SGP4</MEAN_ELEMENT_THEORY></metadata><data><meanElements><EPOCH>2023-11-06T14:28:00.662880</EPOCH><MEAN_MOTION>14.34219582</MEAN_MOTION><ECCENTRICITY>.0002435</ECCENTRICITY><INCLINATION>86.3959</INCLINATION><RA_OF_ASC_NODE>329.0692</RA_OF_ASC_NODE><ARG_OF_PERICENTER>95.1074</ARG_OF_PERICENTER><MEAN_ANOMALY>265.0400</MEAN_ANOMALY></meanElements><tleParameters><EPHEMERIS_TYPE>0</EPHEMERIS_TYPE><CLASSIFICATION_TYPE>U</CLASSIFICATION_TYPE><NORAD_CAT_ID>43258</NORAD_CAT_ID><ELEMENT_SET_NO>999</ELEMENT_SET_NO><REV_AT_EPOCH>29341</REV_AT_EPOCH><BSTAR>.24674E-3</BSTAR><MEAN_MOTION_DOT>.711E-5</MEAN_MOTION_DOT><MEAN_MOTION_DDOT>0</MEAN_MOTION_DDOT></tleParameters></data></segment></body></omm>
<omm id="CCSDS_OMM_VERS" version="2.0">
<header><CREATION_DATE/><ORIGINATOR/></header><body><segment><metadata><OBJECT_NAME>IRIDIUM 161</OBJECT_NAME><OBJECT_ID>2018-047C</OBJECT_ID><CENTER_NAME>EARTH</CENTER_NAME><REF_FRAME>TEME</REF_FRAME><TIME_SYSTEM>UTC</TIME_SYSTEM><MEAN_ELEMENT_THEORY>SGP4</MEAN_ELEMENT_THEORY></metadata><data><meanElements><EPOCH>2023-11-06T14:13:17.411232</EPOCH><MEAN_MOTION>14.43278421</MEAN_MOTION><ECCENTRICITY>.0002001</ECCENTRICITY><INCLINATION>86.4460</INCLINATION><RA_OF_ASC_NODE>127.0468</RA_OF_ASC_NODE><ARG_OF_PERICENTER>90.2029</ARG_OF_PERICENTER><MEAN_ANOMALY>269.9402</MEAN_ANOMALY></meanElements><tleParameters><EPHEMERIS_TYPE>0</EPHEMERIS_TYPE><CLASSIFICATION_TYPE>U</CLASSIFICATION_TYPE><NORAD_CAT_ID>43478</NORAD_CAT_ID><ELEMENT_SET_NO>999</ELEMENT_SET_NO><REV_AT_EPOCH>28759</REV_AT_EPOCH><BSTAR>.11029E-3</BSTAR><MEAN_MOTION_DOT>.391E-5</MEAN_MOTION_DOT><MEAN_MOTION_DDOT>0</MEAN_MOTION_DDOT></tleParameters></data></segment></body></omm>
<omm id="CCSDS_OMM_VERS" version="2.0">
<header><CREATION_DATE/><ORIGINATOR/></header><body><segment><metadata><OBJECT_NAME>IRIDIUM 152</OBJECT_NAME><OBJECT_ID>2018-047D</OBJECT_ID><CENTER_NAME>EARTH</CENTER_NAME><REF_FRAME>TEME</REF_FRAME><TIME_SYSTEM>UTC</TIME_SYSTEM><MEAN_ELEMENT_THEORY>SGP4</MEAN_ELEMENT_THEORY></metadata><data><meanElements><EPOCH>2023-11-06T18:50:07.622016</EPOCH><MEAN_MOTION>14.34219150</MEAN_MOTION><ECCENTRICITY>.0002323</ECCENTRICITY><INCLINATION>86.3932</INCLINATION><RA_OF_ASC_NODE>126.8260</RA_OF_ASC_NODE><ARG_OF_PERICENTER>89.2934</ARG_OF_PERICENTER><MEAN_ANOMALY>270.8528</MEAN_ANOMALY></meanElements><tleParameters><EPHEMERIS_TYPE>0</EPHEMERIS_TYPE><CLASSIFICATION_TYPE>U</CLASSIFICATION_TYPE><NORAD_CAT_ID>43479</NORAD_CAT_ID><ELEMENT_SET_NO>999</ELEMENT_SET_NO><REV_AT_EPOCH>28584</REV_AT_EPOCH><BSTAR>.69935E-4</BSTAR><MEAN_MOTION_DOT>.216E-5</MEAN_MOTION_DOT><MEAN_MOTION_DDOT>0</MEAN_MOTION_DDOT></tleParameters></data></segment></body></omm>
<omm id="CCSDS_OMM_VERS" version="2.0">
<header><CREATION_DATE/><ORIGINATOR/></header><body><segment><metadata><OBJECT_NAME>IRIDIUM 147</OBJECT_NAME><OBJECT_ID>2018-047E</OBJECT_ID><CENTER_NAME>EARTH</CENTER_NAME><REF_FRAME>TEME</REF_FRAME><TIME_SYSTEM>UTC</TIME_SYSTEM><MEAN_ELEMENT_THEORY>SGP4</MEAN_ELEMENT_THEORY></metadata><data><meanElements><EPOCH>2023-11-06T13:57:50.160384</EPOCH><MEAN_MOTION>14.34218270</MEAN_MOTION><ECCENTRICITY>.0001851</ECCENTRICITY><INCLINATION>86.3935</INCLINATION><RA_OF_ASC_NODE>126.8995</RA_OF_ASC_NODE><ARG_OF_PERICENTER>86.4926</ARG_OF_PERICENTER><MEAN_ANOMALY>273.6481</MEAN_ANOMALY></meanElements><tleParameters><EPHEMERIS_TYPE>0</EPHEMERIS_TYPE><CLASSIFICATION_TYPE>U</CLASSIFICATION_TYPE><NORAD_CAT_ID>43480</NORAD_CAT_ID><ELEMENT_SET_NO>999</ELEMENT_SET_NO><REV_AT_EPOCH>28580</REV_AT_EPOCH><BSTAR>.9682E-4</BSTAR><MEAN_MOTION_DOT>.291E-5</MEAN_MOTION_DOT><MEAN_MOTION_DDOT>0</MEAN_MOTION_DDOT></tleParameters></data></segment></body></omm>
<omm id="CCSDS_OMM_VERS" version="2.0">
<header><CREATION_DATE/><ORIGINATOR/></header><body><segment><metadata><OBJECT_NAME>IRIDIUM 110</OBJECT_NAME><OBJECT_ID>2018-047F</OBJECT_ID><CENTER_NAME>EARTH</CENTER_NAME><REF_FRAME>TEME</REF_FRAME><TIME_SYSTEM>UTC</TIME_SYSTEM><MEAN_ELEMENT_THEORY>SGP4</MEAN_ELEMENT_THEORY></metadata><data><meanElements><EPOCH>2023-11-06T14:06:57.878496</EPOCH><MEAN_MOTION>14.34217810</MEAN_MOTION><ECCENTRICITY>.0001737</ECCENTRICITY><INCLINATION>86.3937</INCLINATION><RA_OF_ASC_NODE>126.9636</RA_OF_ASC_NODE><ARG_OF_PERICENTER>88.7819</ARG_OF_PERICENTER><MEAN_ANOMALY>271.3575</MEAN_ANOMALY></meanElements><tleParameters><EPHEMERIS_TYPE>0</EPHEMERIS_TYPE><CLASSIFICATION_TYPE>U</CLASSIFICATION_TYPE><NORAD_CAT_ID>43481</NORAD_CAT_ID><ELEMENT_SET_NO>999</ELEMENT_SET_NO><REV_AT_EPOCH>28579</REV_AT_EPOCH><BSTAR>.10292E-3</BSTAR><MEAN_MOTION_DOT>.308E-5</MEAN_MOTION_DOT><MEAN_MOTION_DDOT>0</MEAN_MOTION_DDOT></tleParameters></data></segment></body></omm>
<omm id="CCSDS_OMM_VERS" version="2.0">
<header><CREATION_DATE/><ORIGINATOR/></header><body><segment><metadata><OBJECT_NAME>IRIDIUM 162</OBJECT_NAME><OBJECT_ID>2018-047G</OBJECT_ID><CENTER_NAME>EARTH</CENTER_NAME><REF_FRAME>TEME</REF_FRAME><TIME_SYSTEM>UTC</TIME_SYSTEM><MEAN_ELEMENT_THEORY>SGP4</MEAN_ELEMENT_THEORY></metadata><data><meanElements><EPOCH>2023-11-06T14:04:16.161888</EPOCH><MEAN_MOTION>14.43283922</MEAN_MOTION><ECCENTRICITY>.0002021</ECCENTRICITY><INCLINATION>86.4458</INCLINATION><RA_OF_ASC_NODE>126.9525</RA_OF_ASC_NODE><ARG_OF_PERICENTER>90.1995</ARG_OF_PERICENTER><MEAN_ANOMALY>269.9438</MEAN_ANOMALY></meanElements><tleParameters><EPHEMERIS_TYPE>0</EPHEMERIS_TYPE><CLASSIFICATION_TYPE>U</CLASSIFICATION_TYPE><NORAD_CAT_ID>43482</NORAD_CAT_ID><ELEMENT_SET_NO>999</ELEMENT_SET_NO><REV_AT_EPOCH>28758</REV_AT_EPOCH><BSTAR>.10972E-3</BSTAR><MEAN_MOTION_DOT>.389E-5</MEAN_MOTION_DOT><MEAN_MOTION_DDOT>0</MEAN_MOTION_DDOT></tleParameters></data></segment></body></omm>
<omm id="CCSDS_OMM_VERS" version="2.0">
<header><CREATION_DATE/><ORIGINATOR/></header><body><segment><metadata><OBJECT_NAME>IRIDIUM 160</OBJECT_NAME><OBJECT_ID>2018-061A</OBJECT_ID><CENTER_NAME>EARTH</CENTER_NAME><REF_FRAME>TEME</REF_FRAME><TIME_SYSTEM>UTC</TIME_SYSTEM><MEAN_ELEMENT_THEORY>SGP4</MEAN_ELEMENT_THEORY></metadata><data><meanElements><EPOCH>2023-11-06T11:08:30.125184</EPOCH><MEAN_MOTION>14.34219675</MEAN_MOTION><ECCENTRICITY>.0002245</ECCENTRICITY><INCLINATION>86.3935</INCLINATION><RA_OF_ASC_NODE>95.3716</RA_OF_ASC_NODE><ARG_OF_PERICENTER>85.1620</ARG_OF_PERICENTER><MEAN_ANOMALY>274.9832</MEAN_ANOMALY></meanElements><tleParameters><EPHEMERIS_TYPE>0</EPHEMERIS_TYPE><CLASSIFICATION_TYPE>U</CLASSIFICATION_TYPE><NORAD_CAT_ID>43569</NORAD_CAT_ID><ELEMENT_SET_NO>999</ELEMENT_SET_NO><REV_AT_EPOCH>27667</REV_AT_EPOCH><BSTAR>.29451E-3</BSTAR><MEAN_MOTION_DOT>.845E-5</MEAN_MOTION_DOT><MEAN_MOTION_DDOT>0</MEAN_MOTION_DDOT></tleParameters></data></segment></body></omm>

</ndm>
